NORAD_CAT_ID,OBJECT_NAME,OBJECT_TYPE,EPOCH,MEAN_MOTION,ECCENTRICITY,INCLINATION,RA_OF_ASC_NODE,ARG_OF_PERICENTER,MEAN_ANOMALY,BSTAR,MEAN_MOTION_DOT,MEAN_MOTION_DDOT,TLE_LINE0,TLE_LINE1,TLE_LINE2,SEMIMAJOR_AXIS,PERIOD,APOGEE,PERIGEE,DECAYED
55402.0,STARLINK-5071,PAYLOAD,2023-02-28 03:26:35,15.69917591,0.0004375,69.9993,12.5024,270.1387,89.9308,1.3655e-08,-2.12e-06,0.0,0 STARLINK-5071,1 55402U 23014M   23059.14346129 -.00000212  00000-0  13655-7 0  9998,2 55402  69.9993  12.5024 0004375 270.1387  89.9308 15.69917591  4514,6737.27,91.725,362.082,356.187,0.0
55402.0,STARLINK-5071,PAYLOAD,2023-02-28 09:33:36,15.69909104,0.0002785,69.9996,11.7834,279.4044,80.6837,-1.707e-05,-2.263e-05,0.0,0 STARLINK-5071,1 55402U 23014M   23059.39833550 -.00002263  00000-0 -17070-4 0  9995,2 55402  69.9996  11.7834 0002785 279.4044  80.6837 15.69909104  5496,6737.294,91.725,361.035,357.283,0.0
55402.0,STARLINK-5071,PAYLOAD,2023-02-28 21:47:38,15.69896024,0.0003596,70.0008,10.3517,277.6101,82.4686,-3.699e-05,-4.653e-05,0.0,0 STARLINK-5071,1 55402U 23014M   23059.90807871 -.00004653  00000-0 -36990-4 0  9996,2 55402  70.0008  10.3517 0003596 277.6101  82.4686 15.69896024  5578,6737.331,91.726,361.619,356.774,0.0
55402.0,STARLINK-5071,PAYLOAD,2023-02-28 23:19:22,15.69909718,0.0003195,69.9993,10.1712,264.6147,95.4684,2.147e-05,2.368e-05,0.0,0 STARLINK-5071,1 55402U 23014M   23059.97179244  .00002368  00000-0  21470-4 0  9995,2 55402  69.9993  10.1712 0003195 264.6147  95.4684 15.69909718  4648,6737.292,91.725,361.31,357.005,0.0
55402.0,STARLINK-5071,PAYLOAD,2023-03-01 05:26:23,15.69925992,0.0003047,69.9998,9.4549,266.0399,94.0449,8.0969e-05,9.534e-05,0.0,0 STARLINK-5071,1 55402U 23014M   23060.22665698  .00009534  00000-0  80969-4 0  9998,2 55402  69.9998   9.4549 0003047 266.0399  94.0449 15.69925992  4683,6737.246,91.724,361.164,357.058,0.0
55402.0,STARLINK-5071,PAYLOAD,2023-03-01 22:15:39,15.69925873,0.0003743,70.0,7.484,249.7768,110.3026,5.6845e-05,6.629e-05,0.0,0 STARLINK-5071,1 55402U 23014M   23060.92754069  .00006629  00000-0  56845-4 0  9994,2 55402  70.0000   7.4840 0003743 249.7768 110.3026 15.69925873  5731,6737.246,91.724,361.633,356.589,0.0
55402.0,STARLINK-5071,PAYLOAD,2023-03-02 02:50:56,15.6986542,0.0003769,69.9995,6.9463,260.627,99.45,-0.00017559,-0.00021224,0.0,0 STARLINK-5071,1 55402U 23014M   23061.11870478 -.00021224  00000-0 -17559-3 0  9997,2 55402  69.9995   6.9463 0003769 260.6270  99.4500 15.69865420  4828,6737.419,91.728,361.823,356.745,0.0
55402.0,STARLINK-5071,PAYLOAD,2023-03-02 19:40:10,15.69955563,0.0003442,69.9985,4.9742,255.1931,104.8884,0.00014328,0.00017073,0.0,0 STARLINK-5071,1 55402U 23014M   23061.81957028  .00017073  00000-0  14328-3 0  9997,2 55402  69.9985   4.9742 0003442 255.1931 104.8884 15.69955563  4932,6737.161,91.722,361.345,356.707,0.0
55402.0,STARLINK-5071,PAYLOAD,2023-03-03 04:50:41,15.69963579,0.0003803,70.0003,3.9015,259.7447,100.332,0.0001412,0.00016828,0.0,0 STARLINK-5071,1 55402U 23014M   23062.20186509  .00016828  00000-0  14120-3 0  9996,2 55402  70.0003   3.9015 0003803 259.7447 100.3320 15.69963579  5934,6737.138,91.722,361.565,356.441,0.0
55402.0,STARLINK-5071,PAYLOAD,2023-03-03 21:39:57,15.69931286,0.000351,70.0,1.9297,230.3553,129.7334,-2.6038e-05,-3.343e-05,0.0,0 STARLINK-5071,1 55402U 23014M   23062.90275244 -.00003343  00000-0 -26038-4 0  9990,2 55402  70.0000   1.9297 0003510 230.3553 129.7334 15.69931286  6042,6737.231,91.724,361.46,356.731,0.0
55402.0,STARLINK-5071,PAYLOAD,2023-03-04 02:15:13,15.6993029,0.0003216,69.9998,1.3918,247.2593,112.8263,-1.5886e-05,-2.123e-05,0.0,0 STARLINK-5071,1 55402U 23014M   23063.09390418 -.00002123  00000-0 -15886-4 0  9996,2 55402  69.9998   1.3918 0003216 247.2593 112.8263 15.69930290  5130,6737.233,91.724,361.265,356.932,0.0
55402.0,STARLINK-5071,PAYLOAD,2023-03-04 05:18:43,15.6994053,0.0003379,69.9992,1.0341,249.3279,110.7555,4.364e-05,5.041e-05,0.0,0 STARLINK-5071,1 55402U 23014M   23063.22133427  .00005041  00000-0  43640-4 0  9995,2 55402  69.9992   1.0341 0003379 249.3279 110.7555 15.69940530  5156,6737.204,91.723,361.346,356.793,0.0
55402.0,STARLINK-5071,PAYLOAD,2023-03-04 19:04:29,15.69928933,0.0003176,69.9997,359.4235,250.6327,109.4525,4.5216e-05,5.228e-05,0.0,0 STARLINK-5071,1 55402U 23014M   23063.79478732  .00005228  00000-0  45216-4 0  9996,2 55402  69.9997 359.4235 0003176 250.6327 109.4525 15.69928933  5242,6737.237,91.724,361.242,356.963,0.0
55402.0,STARLINK-5071,PAYLOAD,2023-03-05 05:46:45,15.6993469,0.0003105,69.999,358.1657,251.0043,109.0816,4.9359e-05,5.729e-05,0.0,0 STARLINK-5071,1 55402U 23014M   23064.24080274  .00005729  00000-0  49359-4 0  9995,2 55402  69.9990 358.1657 0003105 251.0043 109.0816 15.69934690  6259,6737.221,91.724,361.178,356.994,0.0
55402.0,STARLINK-5071,PAYLOAD,2023-03-05 22:36:01,15.69927835,0.0003254,69.999,356.1954,251.2619,108.8224,2.0557e-05,2.26e-05,0.0,0 STARLINK-5071,1 55402U 23014M   23064.94168921  .00002260  00000-0  20557-4 0  9994,2 55402  69.9990 356.1954 0003254 251.2619 108.8224 15.69927835  6368,6737.24,91.724,361.298,356.913,0.0
55402.0,STARLINK-5071,PAYLOAD,2023-03-06 01:39:31,15.6993937,0.0003252,69.9979,355.8361,251.424,108.6603,6.1243e-05,7.162e-05,0.0,0 STARLINK-5071,1 55402U 23014M   23065.06911925  .00007162  00000-0  61243-4 0  9991,2 55402  69.9979 355.8361 0003252 251.4240 108.6603 15.69939370  5447,6737.207,91.723,361.263,356.882,0.0
55402.0,STARLINK-5071,PAYLOAD,2023-03-06 18:28:49,15.69909736,0.0003137,70.0007,353.8666,257.9869,102.0975,-2.7313e-05,-3.493e-05,0.0,0 STARLINK-5071,1 55402U 23014M   23065.77001251 -.00003493  00000-0 -27313-4 0  9996,2 55402  70.0007 353.8666 0003137 257.9869 102.0975 15.69909736  5553,6737.292,91.725,361.271,357.044,0.0
55402.0,STARLINK-5071,PAYLOAD,2023-03-06 21:32:18,15.69922879,0.0003023,69.9972,353.5058,244.8444,115.2438,1.9519e-05,2.135e-05,0.0,0 STARLINK-5071,1 55402U 23014M   23065.89744199  .00002135  00000-0  19519-4 0  9993,2 55402  69.9972 353.5058 0003023 244.8444 115.2438 15.69922879  6511,6737.255,91.724,361.156,357.083,0.0
55402.0,STARLINK-5071,PAYLOAD,2023-03-07 05:11:04,15.69947687,0.000355,70.0001,352.6131,258.9304,101.1492,0.00016204,0.00019336,0.0,0 STARLINK-5071,1 55402U 23014M   23066.21602157  .00019336  00000-0  16204-3 0  9995,2 55402  70.0001 352.6131 0003550 258.9304 101.1492 15.69947687  5624,6737.184,91.723,361.44,356.657,0.0
55402.0,STARLINK-5071,PAYLOAD,2023-03-07 18:56:50,15.69924067,0.0003788,69.9981,350.9999,264.3507,95.7257,3.7144e-05,4.256e-05,0.0,0 STARLINK-5071,1 55402U 23014M   23066.78947685  .00004256  00000-0  37144-4 0  9997,2 55402  69.9981 350.9999 0003788 264.3507  95.7257 15.69924067  5714,6737.251,91.724,361.668,356.564,0.0
55402.0,STARLINK-5071,PAYLOAD,2023-03-08 02:35:36,15.69939768,0.0003573,69.9986,350.1041,266.4272,93.6515,9.7017e-05,0.00011476,0.0,0 STARLINK-5071,1 55402U 23014M   23067.10805782  .00011476  00000-0  97017-4 0  9992,2 55402  69.9986 350.1041 0003573 266.4272  93.6515 15.69939768  5766,6737.206,91.723,361.479,356.664,0.0
55402.0,STARLINK-5071,PAYLOAD,2023-03-08 04:07:21,15.69943994,0.0003552,69.9985,349.925,266.7668,93.3121,0.00011649,0.00013829,0.0,0 STARLINK-5071,1 55402U 23014M   23067.17177341  .00013829  00000-0  11649-3 0  9992,2 55402  69.9985 349.9250 0003552 266.7668  93.3121 15.69943994  6714,6737.194,91.723,361.452,356.666,0.0
55402.0,STARLINK-5071,PAYLOAD,2023-03-09 19:52:55,15.69960773,0.0003521,69.9984,345.2682,286.4089,73.672,0.00038301,0.00046166,0.0,0 STARLINK-5071,1 55402U 23014M   23068.82841948  .00046166  00000-0  38301-3 0  9990,2 55402  69.9984 345.2682 0003521 286.4089  73.6720 15.69960773  6038,6737.146,91.722,361.383,356.639,0.0
55402.0,STARLINK-5071,PAYLOAD,2023-03-09 21:24:40,15.69966179,0.0003568,69.9987,345.0888,283.4768,76.603,0.00041983,0.00050664,0.0,0 STARLINK-5071,1 55402U 23014M   23068.89213538  .00050664  00000-0  41983-3 0  9993,2 55402  69.9987 345.0888 0003568 283.4768  76.6030 15.69966179  6986,6737.131,91.722,361.4,356.592,0.0
55402.0,STARLINK-5071,PAYLOAD,2023-03-10 03:31:40,15.69943602,0.0002441,69.9988,344.3726,288.114,71.979,4.1204e-05,4.748e-05,0.0,0 STARLINK-5071,1 55402U 23014M   23069.14700206  .00004748  00000-0  41204-4 0  9994,2 55402  69.9988 344.3726 0002441 288.1140  71.9790 15.69943602  6083,6737.195,91.723,360.705,357.416,0.0
55402.0,STARLINK-5071,PAYLOAD,2023-03-10 11:10:26,15.69930573,0.0002822,69.9996,343.4786,264.1105,95.9769,-0.00015246,-0.00018507,0.0,0 STARLINK-5071,1 55402U 23014M   23069.46558171 -.00018507  00000-0 -15246-3 0  9997,2 55402  69.9996 343.4786 0002822 264.1105  95.9769 15.69930573  6137,6737.233,91.724,360.999,357.196,0.0
55402.0,STARLINK-5071,PAYLOAD,2023-03-10 21:52:42,15.69920053,0.0003314,69.9999,342.2242,257.3855,102.697,0.00015196,0.00018095,0.0,0 STARLINK-5071,1 55402U 23014M   23069.91160236  .00018095  00000-0  15196-3 0  9992,2 55402  69.9999 342.2242 0003314 257.3855 102.6970 15.69920053  7141,6737.263,91.724,361.36,356.895,0.0
55402.0,STARLINK-5071,PAYLOAD,2023-03-11 00:56:12,15.69924657,0.0003574,69.9993,341.8664,252.0035,108.0772,0.00019942,0.00023835,0.0,0 STARLINK-5071,1 55402U 23014M   23070.03903505  .00023835  00000-0  19942-3 0  9992,2 55402  69.9993 341.8664 0003574 252.0035 108.0772 15.69924657  6220,6737.25,91.724,361.522,356.707,0.0
55402.0,STARLINK-5071,PAYLOAD,2023-03-11 05:31:27,15.69948419,0.000307,70.0,341.3276,252.3585,107.7276,0.00029452,0.00035384,0.0,0 STARLINK-5071,1 55402U 23014M   23070.23018284  .00035384  00000-0  29452-3 0  9994,2 55402  70.0000 341.3276 0003070 252.3585 107.7276 15.69948419  6250,6737.182,91.723,361.115,356.978,0.0
55402.0,STARLINK-5071,PAYLOAD,2023-03-11 17:45:28,15.69951187,0.0002938,69.999,339.8937,259.5204,100.5661,0.00017199,0.0002054,0.0,0 STARLINK-5071,1 55402U 23014M   23070.73991399  .00020540  00000-0  17199-3 0  9999,2 55402  69.9990 339.8937 0002938 259.5204 100.5661 15.69951187  6334,6737.174,91.723,361.018,357.059,0.0
